[
    {
        "Altitude(m)": 705882.4326997072,
        "Argument of Periapsis(deg)": 0.0011390121186627068,
        "Eccentricity": 0.0,
        "Inclination(deg)": 45.0,
        "Latitude(deg)": -12.41488128194476,
        "Longitude(deg)": 52.59795755266914,
        "Mean Anomaly(deg)": -162.4830783352519,
        "RAAN(deg)": 319.99892480585413,
        "Satellite Name": "Constellation 1 1420",
        "Satellite Number": 1420,
        "Semi-Major Axis(m)": 7083131.272910544,
        "Time(s)": 19
    },
    {
        "Altitude(m)": 705893.3876970869,
        "Argument of Periapsis(deg)": 0.0011989601249081123,
        "Eccentricity": 0.0,
        "Inclination(deg)": 45.0,
        "Latitude(deg)": -12.457000943581724,
        "Longitude(deg)": 52.63875025946222,
        "Mean Anomaly(deg)": -162.42237719500207,
        "RAAN(deg)": 319.9988682166886,
        "Satellite Name": "Constellation 1 1420",
        "Satellite Number": 1420,
        "Semi-Major Axis(m)": 7083131.272910544,
        "Time(s)": 20
    },
    {
        "Altitude(m)": 705904.35767917,
        "Argument of Periapsis(deg)": 0.001258908131153518,
        "Eccentricity": 0.0,
        "Inclination(deg)": 45.0,
        "Latitude(deg)": -12.499112922788616,
        "Longitude(deg)": 52.67955735007312,
        "Mean Anomaly(deg)": -162.3616760547522,
        "RAAN(deg)": 319.998811627523,
        "Satellite Name": "Constellation 1 1420",
        "Satellite Number": 1420,
        "Semi-Major Axis(m)": 7083131.272910544,
        "Time(s)": 21
    },
    {
        "Altitude(m)": 705915.3426144025,
        "Argument of Periapsis(deg)": 0.0013188561373989236,
        "Eccentricity": 0.0,
        "Inclination(deg)": 45.0,
        "Latitude(deg)": -12.54121719076899,
        "Longitude(deg)": 52.720378708889676,
        "Mean Anomaly(deg)": -162.30097491450226,
        "RAAN(deg)": 319.9987550383575,
        "Satellite Name": "Constellation 1 1420",
        "Satellite Number": 1420,
        "Semi-Major Axis(m)": 7083131.272910544,
        "Time(s)": 22
    },
    {
        "Altitude(m)": 705926.3424711607,
        "Argument of Periapsis(deg)": 0.0013788041436443293,
        "Eccentricity": 0.0,
        "Inclination(deg)": 45.0,
        "Latitude(deg)": -12.583313718698015,
        "Longitude(deg)": 52.7612147246175,
        "Mean Anomaly(deg)": -162.24027377425227,
        "RAAN(deg)": 319.9986984491919,
        "Satellite Name": "Constellation 1 1420",
        "Satellite Number": 1420,
        "Semi-Major Axis(m)": 7083131.272910544,
        "Time(s)": 23
    },
    {
        "Altitude(m)": 705937.3572177474,
        "Argument of Periapsis(deg)": 0.001438752149889735,
        "Eccentricity": 0.0,
        "Inclination(deg)": 45.0,
        "Latitude(deg)": -12.62540247772392,
        "Longitude(deg)": 52.802065281698184,
        "Mean Anomaly(deg)": -162.17957263400243,
        "RAAN(deg)": 319.9986418600263,
        "Satellite Name": "Constellation 1 1420",
        "Satellite Number": 1420,
        "Semi-Major Axis(m)": 7083131.272910544,
        "Time(s)": 24
    },
    {
        "Altitude(m)": 705948.3868223868,
        "Argument of Periapsis(deg)": 0.0014987001561351404,
        "Eccentricity": 0.0,
        "Inclination(deg)": 45.0,
        "Latitude(deg)": -12.667483438966897,
        "Longitude(deg)": 52.84293043269756,
        "Mean Anomaly(deg)": -162.11887149375255,
        "RAAN(deg)": 319.99858527086076,
        "Satellite Name": "Constellation 1 1420",
        "Satellite Number": 1420,
        "Semi-Major Axis(m)": 7083131.272910544,
        "Time(s)": 25
    },
    {
        "Altitude(m)": 705959.4312532316,
        "Argument of Periapsis(deg)": 0.001558648162380546,
        "Eccentricity": 0.0,
        "Inclination(deg)": 45.0,
        "Latitude(deg)": -12.70955657351937,
        "Longitude(deg)": 52.88381023020849,
        "Mean Anomaly(deg)": -162.05817035350262,
        "RAAN(deg)": 319.9985286816952,
        "Satellite Name": "Constellation 1 1420",
        "Satellite Number": 1420,
        "Semi-Major Axis(m)": 7083131.272910544,
        "Time(s)": 26
    },
    {
        "Altitude(m)": 705970.4904783724,
        "Argument of Periapsis(deg)": 0.0016185961686259519,
        "Eccentricity": 0.0,
        "Inclination(deg)": 45.0,
        "Latitude(deg)": -12.751621852445457,
        "Longitude(deg)": 52.9247047268508,
        "Mean Anomaly(deg)": -161.99746921325274,
        "RAAN(deg)": 319.99847209252965,
        "Satellite Name": "Constellation 1 1420",
        "Satellite Number": 1420,
        "Semi-Major Axis(m)": 7083131.272910544,
        "Time(s)": 27
    },
    {
        "Altitude(m)": 705981.5644658145,
        "Argument of Periapsis(deg)": 0.0016785441748713573,
        "Eccentricity": 0.0,
        "Inclination(deg)": 45.0,
        "Latitude(deg)": -12.79367924678145,
        "Longitude(deg)": 52.96561397527178,
        "Mean Anomaly(deg)": -161.9367680730029,
        "RAAN(deg)": 319.9984155033641,
        "Satellite Name": "Constellation 1 1420",
        "Satellite Number": 1420,
        "Semi-Major Axis(m)": 7083131.272910544,
        "Time(s)": 28
    },
    {
        "Altitude(m)": 705992.6531834893,
        "Argument of Periapsis(deg)": 0.001738492181116763,
        "Eccentricity": 0.0,
        "Inclination(deg)": 45.0,
        "Latitude(deg)": -12.835728727535367,
        "Longitude(deg)": 53.00653802814585,
        "Mean Anomaly(deg)": -161.87606693275296,
        "RAAN(deg)": 319.9983589141985,
        "Satellite Name": "Constellation 1 1420",
        "Satellite Number": 1420,
        "Semi-Major Axis(m)": 7083131.272910544,
        "Time(s)": 29
    },
    {
        "Altitude(m)": 706003.756599272,
        "Argument of Periapsis(deg)": 0.0017984401873621684,
        "Eccentricity": 0.0,
        "Inclination(deg)": 45.0,
        "Latitude(deg)": -12.877770265686987,
        "Longitude(deg)": 53.04747677007778,
        "Mean Anomaly(deg)": -161.81536579250303,
        "RAAN(deg)": 319.9983023250329,
        "Satellite Name": "Constellation 1 1420",
        "Satellite Number": 1420,
        "Semi-Major Axis(m)": 7083131.272910544,
        "Time(s)": 30
    },
    {
        "Altitude(m)": 706014.8746809425,
        "Argument of Periapsis(deg)": 0.0018583881936075745,
        "Eccentricity": 0.0,
        "Inclination(deg)": 45.0,
        "Latitude(deg)": -12.919803832187034,
        "Longitude(deg)": 53.08843058999064,
        "Mean Anomaly(deg)": -161.7546646522532,
        "RAAN(deg)": 319.99824573586733,
        "Satellite Name": "Constellation 1 1420",
        "Satellite Number": 1420,
        "Semi-Major Axis(m)": 7083131.272910544,
        "Time(s)": 31
    },
    {
        "Altitude(m)": 706026.007396227,
        "Argument of Periapsis(deg)": 0.0019183361998529795,
        "Eccentricity": 0.0,
        "Inclination(deg)": 45.0,
        "Latitude(deg)": -12.961829397958562,
        "Longitude(deg)": 53.12939937254423,
        "Mean Anomaly(deg)": -161.69396351200322,
        "RAAN(deg)": 319.9981891467018,
        "Satellite Name": "Constellation 1 1420",
        "Satellite Number": 1420,
        "Semi-Major Axis(m)": 7083131.272910544,
        "Time(s)": 32
    },
    {
        "Altitude(m)": 706037.1547127753,
        "Argument of Periapsis(deg)": 0.0019782842060983856,
        "Eccentricity": 0.0,
        "Inclination(deg)": 45.0,
        "Latitude(deg)": -13.003846933895556,
        "Longitude(deg)": 53.170383170522506,
        "Mean Anomaly(deg)": -161.6332623717533,
        "RAAN(deg)": 319.9981325575362,
        "Satellite Name": "Constellation 1 1420",
        "Satellite Number": 1420,
        "Semi-Major Axis(m)": 7083131.272910544,
        "Time(s)": 33
    },
    {
        "Altitude(m)": 706048.3165981588,
        "Argument of Periapsis(deg)": 0.0020382322123437906,
        "Eccentricity": 0.0,
        "Inclination(deg)": 45.0,
        "Latitude(deg)": -13.04585641086319,
        "Longitude(deg)": 53.21138203673708,
        "Mean Anomaly(deg)": -161.57256123150344,
        "RAAN(deg)": 319.99807596837064,
        "Satellite Name": "Constellation 1 1420",
        "Satellite Number": 1420,
        "Semi-Major Axis(m)": 7083131.272910544,
        "Time(s)": 34
    },
    {
        "Altitude(m)": 706059.493019886,
        "Argument of Periapsis(deg)": 0.002098180218589197,
        "Eccentricity": 0.0,
        "Inclination(deg)": 45.0,
        "Latitude(deg)": -13.087857799698032,
        "Longitude(deg)": 53.2523960240271,
        "Mean Anomaly(deg)": -161.51186009125357,
        "RAAN(deg)": 319.99801937920506,
        "Satellite Name": "Constellation 1 1420",
        "Satellite Number": 1420,
        "Semi-Major Axis(m)": 7083131.272910544,
        "Time(s)": 35
    },
    {
        "Altitude(m)": 706070.6839453884,
        "Argument of Periapsis(deg)": 0.002158128224834602,
        "Eccentricity": 0.0,
        "Inclination(deg)": 45.0,
        "Latitude(deg)": -13.129851071207566,
        "Longitude(deg)": 53.29342518525962,
        "Mean Anomaly(deg)": -161.45115895100358,
        "RAAN(deg)": 319.9979627900395,
        "Satellite Name": "Constellation 1 1420",
        "Satellite Number": 1420,
        "Semi-Major Axis(m)": 7083131.272910544,
        "Time(s)": 36
    },
    {
        "Altitude(m)": 706081.8893420241,
        "Argument of Periapsis(deg)": 0.002218076231080008,
        "Eccentricity": 0.0,
        "Inclination(deg)": 45.0,
        "Latitude(deg)": -13.171836196170316,
        "Longitude(deg)": 53.33446940523211,
        "Mean Anomaly(deg)": -161.39045781075373,
        "RAAN(deg)": 319.9979062008739,
        "Satellite Name": "Constellation 1 1420",
        "Satellite Number": 1420,
        "Semi-Major Axis(m)": 7083131.272910544,
        "Time(s)": 37
    }
]